<?xml version="1.0" encoding="UTF-8"?>
<ndm xmlns:xsi="http://www.w3.org/2001/XMLSchema-instance" xsi:noNamespaceSchemaLocation="https://sanaregistry.org/r/ndmxml_unqualified/ndmxml-2.0.0-master-2.0.xsd">
<omm id="CCSDS_OMM_VERS" version="2.0">
<header><CREATION_DATE/><ORIGINATOR/></header><body><segment><metadata><OBJECT_NAME>IRIDIUM 57</OBJECT_NAME><OBJECT_ID>1998-019B</OBJECT_ID><CENTER_NAME>EARTH</CENTER_NAME><REF_FRAME>TEME</REF_FRAME><TIME_SYSTEM>UTC</TIME_SYSTEM><MEAN_ELEMENT_THEORY>SGP4</MEAN_ELEMENT_THEORY></metadata><data><meanElements><EPOCH>2024-07-16T18:37:53.376672</EPOCH><MEAN_MOTION>14.35283773</MEAN_MOTION><ECCENTRICITY>.0002229</ECCENTRICITY><INCLINATION>86.3956</INCLINATION><RA_OF_ASC_NODE>285.7275</RA_OF_ASC_NODE><ARG_OF_PERICENTER>94.4690</ARG_OF_PERICENTER><MEAN_ANOMALY>265.6761</MEAN_ANOMALY></meanElements><tleParameters><EPHEMERIS_TYPE>0</EPHEMERIS_TYPE><CLASSIFICATION_TYPE>U</CLASSIFICATION_TYPE><NORAD_CAT_ID>25273</NORAD_CAT_ID><ELEMENT_SET_NO>999</ELEMENT_SET_NO><REV_AT_EPOCH>37687</REV_AT_EPOCH><BSTAR>.20339E-3</BSTAR><MEAN_MOTION_DOT>.602E-5</MEAN_MOTION_DOT><MEAN_MOTION_DDOT>0</MEAN_MOTION_DDOT></tleParameters></data></segment></body></omm>
<omm id="CCSDS_OMM_VERS" version="2.0">
<header><CREATION_DATE/><ORIGINATOR/></header><body><segment><metadata><OBJECT_NAME>IRIDIUM 63</OBJECT_NAME><OBJECT_ID>1998-021B</OBJECT_ID><CENTER_NAME>EARTH</CENTER_NAME><REF_FRAME>TEME</REF_FRAME><TIME_SYSTEM>UTC</TIME_SYSTEM><MEAN_ELEMENT_THEORY>SGP4</MEAN_ELEMENT_THEORY></metadata><data><meanElements><EPOCH>2024-07-16T13:54:34.079904</EPOCH><MEAN_MOTION>14.35831646</MEAN_MOTION><ECCENTRICITY>.0002101</ECCENTRICITY><INCLINATION>86.3978</INCLINATION><RA_OF_ASC_NODE>222.7108</RA_OF_ASC_NODE><ARG_OF_PERICENTER>90.9836</ARG_OF_PERICENTER><MEAN_ANOMALY>269.1602</MEAN_ANOMALY></meanElements><tleParameters><EPHEMERIS_TYPE>0</EPHEMERIS_TYPE><CLASSIFICATION_TYPE>U</CLASSIFICATION_TYPE><NORAD_CAT_ID>25286</NORAD_CAT_ID><ELEMENT_SET_NO>999</ELEMENT_SET_NO><REV_AT_EPOCH>37567</REV_AT_EPOCH><BSTAR>.16244E-3</BSTAR><MEAN_MOTION_DOT>.49E-5</MEAN_MOTION_DOT><MEAN_MOTION_DDOT>0</MEAN_MOTION_DDOT></tleParameters></data></segment></body></omm>
<omm id="CCSDS_OMM_VERS" version="2.0">
<header><CREATION_DATE/><ORIGINATOR/></header><body><segment><metadata><OBJECT_NAME>IRIDIUM 69</OBJECT_NAME><OBJECT_ID>1998-026A</OBJECT_ID><CENTER_NAME>EARTH</CENTER_NAME><REF_FRAME>TEME</REF_FRAME><TIME_SYSTEM>UTC</TIME_SYSTEM><MEAN_ELEMENT_THEORY>SGP4</MEAN_ELEMENT_THEORY></metadata><data><meanElements><EPOCH>2024-07-16T15:08:41.261568</EPOCH><MEAN_MOTION>14.40081085</MEAN_MOTION><ECCENTRICITY>.0004317</ECCENTRICITY><INCLINATION>86.3963</INCLINATION><RA_OF_ASC_NODE>236.9855</RA_OF_ASC_NODE><ARG_OF_PERICENTER>71.2108</ARG_OF_PERICENTER><MEAN_ANOMALY>288.9559</MEAN_ANOMALY></meanElements><tleParameters><EPHEMERIS_TYPE>0</EPHEMERIS_TYPE><CLASSIFICATION_TYPE>U</CLASSIFICATION_TYPE><NORAD_CAT_ID>25319</NORAD_CAT_ID><ELEMENT_SET_NO>999</ELEMENT_SET_NO><REV_AT_EPOCH>37499</REV_AT_EPOCH><BSTAR>.22922E-3</BSTAR><MEAN_MOTION_DOT>.742E-5</MEAN_MOTION_DOT><MEAN_MOTION_DDOT>0</MEAN_MOTION_DDOT></tleParameters></data></segment></body></omm>
<omm id="CCSDS_OMM_VERS" version="2.0">
<header><CREATION_DATE/><ORIGINATOR/></header><body><segment><metadata><OBJECT_NAME>IRIDIUM 71</OBJECT_NAME><OBJECT_ID>1998-026B</OBJECT_ID><CENTER_NAME>EARTH</CENTER_NAME><REF_FRAME>TEME</REF_FRAME><TIME_SYSTEM>UTC</TIME_SYSTEM><MEAN_ELEMENT_THEORY>SGP4</MEAN_ELEMENT_THEORY></metadata><data><meanElements><EPOCH>2024-07-16T13:19:34.214304</EPOCH><MEAN_MOTION>14.40388479</MEAN_MOTION><ECCENTRICITY>.0004368</ECCENTRICITY><INCLINATION>86.3963</INCLINATION><RA_OF_ASC_NODE>231.7729</RA_OF_ASC_NODE><ARG_OF_PERICENTER>102.6721</ARG_OF_PERICENTER><MEAN_ANOMALY>257.4967</MEAN_ANOMALY></meanElements><tleParameters><EPHEMERIS_TYPE>0</EPHEMERIS_TYPE><CLASSIFICATION_TYPE>U</CLASSIFICATION_TYPE><NORAD_CAT_ID>25320</NORAD_CAT_ID><ELEMENT_SET_NO>999</ELEMENT_SET_NO><REV_AT_EPOCH>37526</REV_AT_EPOCH><BSTAR>.20109E-3</BSTAR><MEAN_MOTION_DOT>.658E-5</MEAN_MOTION_DOT><MEAN_MOTION_DDOT>0</MEAN_MOTION_DDOT></tleParameters></data></segment></body></omm>
<omm id="CCSDS_OMM_VERS" version="2.0">
<header><CREATION_DATE/><ORIGINATOR/></header><body><segment><metadata><OBJECT_NAME>IRIDIUM 73</OBJECT_NAME><OBJECT_ID>1998-032C</OBJECT_ID><CENTER_NAME>EARTH</CENTER_NAME><REF_FRAME>TEME</REF_FRAME><TIME_SYSTEM>UTC</TIME_SYSTEM><MEAN_ELEMENT_THEORY>SGP4</MEAN_ELEMENT_THEORY></metadata><data><meanElements><EPOCH>2024-07-16T11:31:33.796128</EPOCH><MEAN_MOTION>14.50629624</MEAN_MOTION><ECCENTRICITY>.0002881</ECCENTRICITY><INCLINATION>86.4444</INCLINATION><RA_OF_ASC_NODE>189.2114</RA_OF_ASC_NODE><ARG_OF_PERICENTER>82.2124</ARG_OF_PERICENTER><MEAN_ANOMALY>277.9408</MEAN_ANOMALY></meanElements><tleParameters><EPHEMERIS_TYPE>0</EPHEMERIS_TYPE><CLASSIFICATION_TYPE>U</CLASSIFICATION_TYPE><NORAD_CAT_ID>25344</NORAD_CAT_ID><ELEMENT_SET_NO>999</ELEMENT_SET_NO><REV_AT_EPOCH>38187</REV_AT_EPOCH><BSTAR>.25976E-3</BSTAR><MEAN_MOTION_DOT>.1039E-4</MEAN_MOTION_DOT><MEAN_MOTION_DDOT>0</MEAN_MOTION_DDOT></tleParameters></data></segment></body></omm>
<omm id="CCSDS_OMM_VERS" version="2.0">
<header><CREATION_DATE/><ORIGINATOR/></header><body><segment><metadata><OBJECT_NAME>IRIDIUM 82</OBJECT_NAME><OBJECT_ID>1998-051A</OBJECT_ID><CENTER_NAME>EARTH</CENTER_NAME><REF_FRAME>TEME</REF_FRAME><TIME_SYSTEM>UTC</TIME_SYSTEM><MEAN_ELEMENT_THEORY>SGP4</MEAN_ELEMENT_THEORY></metadata><data><meanElements><EPOCH>2024-07-16T16:23:32.177184</EPOCH><MEAN_MOTION>15.11436305</MEAN_MOTION><ECCENTRICITY>.0126998</ECCENTRICITY><INCLINATION>86.3741</INCLINATION><RA_OF_ASC_NODE>271.7663</RA_OF_ASC_NODE><ARG_OF_PERICENTER>112.2430</ARG_OF_PERICENTER><MEAN_ANOMALY>249.2336</MEAN_ANOMALY></meanElements><tleParameters><EPHEMERIS_TYPE>0</EPHEMERIS_TYPE><CLASSIFICATION_TYPE>U</CLASSIFICATION_TYPE><NORAD_CAT_ID>25467</NORAD_CAT_ID><ELEMENT_SET_NO>999</ELEMENT_SET_NO><REV_AT_EPOCH>37294</REV_AT_EPOCH><BSTAR>.11752E-2</BSTAR><MEAN_MOTION_DOT>.24231E-3</MEAN_MOTION_DOT><MEAN_MOTION_DDOT>0</MEAN_MOTION_DDOT></tleParameters></data></segment></body></omm>
</ndm>
